CCSDS_OMM_VERS = 2.0
CREATION_DATE  = 
ORIGINATOR     = 

OBJECT_NAME    = STARLINK-35902
OBJECT_ID      = 2025-271K
CENTER_NAME    = EARTH
REF_FRAME      = TEME
TIME_SYSTEM    = UTC
MEAN_ELEMENT_THEORY = SGP/SGP4

EPOCH          = 2025-12-11T20:00:01.999872
MEAN_MOTION    = 15.53791851
ECCENTRICITY   = .00008793
INCLINATION    = 53.1596
RA_OF_ASC_NODE = 191.5459
ARG_OF_PERICENTER = 96.9522
MEAN_ANOMALY   = 342.4633

EPHEMERIS_TYPE = 0
CLASSIFICATION_TYPE = U
NORAD_CAT_ID   = 66626
ELEMENT_SET_NO = 999
REV_AT_EPOCH   = 409
BSTAR          = -.3529963E-1
MEAN_MOTION_DOT = -.2055147E-1
MEAN_MOTION_DDOT = 0

CCSDS_OMM_VERS = 2.0
CREATION_DATE  = 
ORIGINATOR     = 

OBJECT_NAME    = STARLINK-35904
OBJECT_ID      = 2025-271L
CENTER_NAME    = EARTH
REF_FRAME      = TEME
TIME_SYSTEM    = UTC
MEAN_ELEMENT_THEORY = SGP/SGP4

EPOCH          = 2025-12-11T20:00:01.999872
MEAN_MOTION    = 15.53790746
ECCENTRICITY   = .0000856
INCLINATION    = 53.1599
RA_OF_ASC_NODE = 191.5420
ARG_OF_PERICENTER = 90.1499
MEAN_ANOMALY   = 351.1836

EPHEMERIS_TYPE = 0
CLASSIFICATION_TYPE = U
NORAD_CAT_ID   = 66627
ELEMENT_SET_NO = 999
REV_AT_EPOCH   = 393
BSTAR          = -.35284775E-1
MEAN_MOTION_DOT = -.2054287E-1
MEAN_MOTION_DDOT = 0

CCSDS_OMM_VERS = 2.0
CREATION_DATE  = 
ORIGINATOR     = 

OBJECT_NAME    = STARLINK-35862
OBJECT_ID      = 2025-271M
CENTER_NAME    = EARTH
REF_FRAME      = TEME
TIME_SYSTEM    = UTC
MEAN_ELEMENT_THEORY = SGP/SGP4

EPOCH          = 2025-12-11T20:00:01.999872
MEAN_MOTION    = 15.53788384
ECCENTRICITY   = .00010235
INCLINATION    = 53.1599
RA_OF_ASC_NODE = 191.5381
ARG_OF_PERICENTER = 75.6395
MEAN_ANOMALY   = 7.6120

EPHEMERIS_TYPE = 0
CLASSIFICATION_TYPE = U
NORAD_CAT_ID   = 66628
ELEMENT_SET_NO = 999
REV_AT_EPOCH   = 409
BSTAR          = -.35238886E-1
MEAN_MOTION_DOT = -.2051844E-1
MEAN_MOTION_DDOT = 0

CCSDS_OMM_VERS = 2.0
CREATION_DATE  = 
ORIGINATOR     = 

OBJECT_NAME    = STARLINK-35956
OBJECT_ID      = 2025-271N
CENTER_NAME    = EARTH
REF_FRAME      = TEME
TIME_SYSTEM    = UTC
MEAN_ELEMENT_THEORY = SGP/SGP4

EPOCH          = 2025-12-11T20:00:01.999872
MEAN_MOTION    = 15.53790933
ECCENTRICITY   = .00009421
INCLINATION    = 53.1596
RA_OF_ASC_NODE = 191.5347
ARG_OF_PERICENTER = 87.7423
MEAN_ANOMALY   = 357.4252

EPHEMERIS_TYPE = 0
CLASSIFICATION_TYPE = U
NORAD_CAT_ID   = 66629
ELEMENT_SET_NO = 999
REV_AT_EPOCH   = 409
BSTAR          = -.3528698E-1
MEAN_MOTION_DOT = -.2054465E-1
MEAN_MOTION_DDOT = 0

CCSDS_OMM_VERS = 2.0
CREATION_DATE  = 
ORIGINATOR     = 

OBJECT_NAME    = STARLINK-35949
OBJECT_ID      = 2025-271P
CENTER_NAME    = EARTH
REF_FRAME      = TEME
TIME_SYSTEM    = UTC
MEAN_ELEMENT_THEORY = SGP/SGP4

EPOCH          = 2025-12-11T20:00:01.999872
MEAN_MOTION    = 15.53791730
ECCENTRICITY   = .0000826
INCLINATION    = 53.1598
RA_OF_ASC_NODE = 191.5293
ARG_OF_PERICENTER = 96.0831
MEAN_ANOMALY   = 350.9991

EPHEMERIS_TYPE = 0
CLASSIFICATION_TYPE = U
NORAD_CAT_ID   = 66630
ELEMENT_SET_NO = 999
REV_AT_EPOCH   = 409
BSTAR          = -.35279036E-1
MEAN_MOTION_DOT = -.2054038E-1
MEAN_MOTION_DDOT = 0

CCSDS_OMM_VERS = 2.0
CREATION_DATE  = 
ORIGINATOR     = 

OBJECT_NAME    = STARLINK-35965
OBJECT_ID      = 2025-271Q
CENTER_NAME    = EARTH
REF_FRAME      = TEME
TIME_SYSTEM    = UTC
MEAN_ELEMENT_THEORY = SGP/SGP4

EPOCH          = 2025-12-11T20:00:01.999872
MEAN_MOTION    = 15.53790430
ECCENTRICITY   = .00008942
INCLINATION    = 53.1598
RA_OF_ASC_NODE = 191.5262
ARG_OF_PERICENTER = 94.9371
MEAN_ANOMALY   = 354.0633

EPHEMERIS_TYPE = 0
CLASSIFICATION_TYPE = U
NORAD_CAT_ID   = 66631
ELEMENT_SET_NO = 999
REV_AT_EPOCH   = 409
BSTAR          = -.35257977E-1
MEAN_MOTION_DOT = -.2052897E-1
MEAN_MOTION_DDOT = 0

CCSDS_OMM_VERS = 2.0
CREATION_DATE  = 
ORIGINATOR     = 

OBJECT_NAME    = STARLINK-35973
OBJECT_ID      = 2025-271R
CENTER_NAME    = EARTH
REF_FRAME      = TEME
TIME_SYSTEM    = UTC
MEAN_ELEMENT_THEORY = SGP/SGP4

EPOCH          = 2025-12-11T20:00:01.999872
MEAN_MOTION    = 15.53791045
ECCENTRICITY   = .00010689
INCLINATION    = 53.1596
RA_OF_ASC_NODE = 191.5225
ARG_OF_PERICENTER = 75.2230
MEAN_ANOMALY   = 15.6953

EPHEMERIS_TYPE = 0
CLASSIFICATION_TYPE = U
NORAD_CAT_ID   = 66632
ELEMENT_SET_NO = 999
REV_AT_EPOCH   = 403
BSTAR          = -.35343268E-1
MEAN_MOTION_DOT = -.2057471E-1
MEAN_MOTION_DDOT = 0

CCSDS_OMM_VERS = 2.0
CREATION_DATE  = 
ORIGINATOR     = 

OBJECT_NAME    = STARLINK-35948
OBJECT_ID      = 2025-271S
CENTER_NAME    = EARTH
REF_FRAME      = TEME
TIME_SYSTEM    = UTC
MEAN_ELEMENT_THEORY = SGP/SGP4

EPOCH          = 2025-12-11T20:00:01.999872
MEAN_MOTION    = 15.53786780
ECCENTRICITY   = .00008235
INCLINATION    = 53.1598
RA_OF_ASC_NODE = 191.5172
ARG_OF_PERICENTER = 88.1098
MEAN_ANOMALY   = 4.7265

EPHEMERIS_TYPE = 0
CLASSIFICATION_TYPE = U
NORAD_CAT_ID   = 66633
ELEMENT_SET_NO = 999
REV_AT_EPOCH   = 409
BSTAR          = -.35169802E-1
MEAN_MOTION_DOT = -.204803E-1
MEAN_MOTION_DDOT = 0

CCSDS_OMM_VERS = 2.0
CREATION_DATE  = 
ORIGINATOR     = 

OBJECT_NAME    = STARLINK-35967
OBJECT_ID      = 2025-271T
CENTER_NAME    = EARTH
REF_FRAME      = TEME
TIME_SYSTEM    = UTC
MEAN_ELEMENT_THEORY = SGP/SGP4

EPOCH          = 2025-12-11T20:00:01.999872
MEAN_MOTION    = 15.53793491
ECCENTRICITY   = .00009471
INCLINATION    = 53.1595
RA_OF_ASC_NODE = 191.5130
ARG_OF_PERICENTER = 93.8304
MEAN_ANOMALY   = 0.9198

EPHEMERIS_TYPE = 0
CLASSIFICATION_TYPE = U
NORAD_CAT_ID   = 66634
ELEMENT_SET_NO = 999
REV_AT_EPOCH   = 402
BSTAR          = -.35374381E-1
MEAN_MOTION_DOT = -.2059178E-1
MEAN_MOTION_DDOT = 0

CCSDS_OMM_VERS = 2.0
CREATION_DATE  = 
ORIGINATOR     = 

OBJECT_NAME    = STARLINK-35955
OBJECT_ID      = 2025-271U
CENTER_NAME    = EARTH
REF_FRAME      = TEME
TIME_SYSTEM    = UTC
MEAN_ELEMENT_THEORY = SGP/SGP4

EPOCH          = 2025-12-11T20:00:01.999872
MEAN_MOTION    = 15.53790536
ECCENTRICITY   = .00009508
INCLINATION    = 53.1592
RA_OF_ASC_NODE = 191.5092
ARG_OF_PERICENTER = 89.8337
MEAN_ANOMALY   = 6.8348

EPHEMERIS_TYPE = 0
CLASSIFICATION_TYPE = U
NORAD_CAT_ID   = 66635
ELEMENT_SET_NO = 999
REV_AT_EPOCH   = 409
BSTAR          = -.35273087E-1
MEAN_MOTION_DOT = -.2053723E-1
MEAN_MOTION_DDOT = 0

CCSDS_OMM_VERS = 2.0
CREATION_DATE  = 
ORIGINATOR     = 

OBJECT_NAME    = STARLINK-35968
OBJECT_ID      = 2025-271V
CENTER_NAME    = EARTH
REF_FRAME      = TEME
TIME_SYSTEM    = UTC
MEAN_ELEMENT_THEORY = SGP/SGP4

EPOCH          = 2025-12-11T20:00:01.999872
MEAN_MOTION    = 15.53790126
ECCENTRICITY   = .00010798
INCLINATION    = 53.1590
RA_OF_ASC_NODE = 191.5055
ARG_OF_PERICENTER = 75.3001
MEAN_ANOMALY   = 23.2853

EPHEMERIS_TYPE = 0
CLASSIFICATION_TYPE = U
NORAD_CAT_ID   = 66636
ELEMENT_SET_NO = 999
REV_AT_EPOCH   = 409
BSTAR          = -.35294579E-1
MEAN_MOTION_DOT = -.2054889E-1
MEAN_MOTION_DDOT = 0

CCSDS_OMM_VERS = 2.0
CREATION_DATE  = 
ORIGINATOR     = 

OBJECT_NAME    = STARLINK-35953
OBJECT_ID      = 2025-271W
CENTER_NAME    = EARTH
REF_FRAME      = TEME
TIME_SYSTEM    = UTC
MEAN_ELEMENT_THEORY = SGP/SGP4

EPOCH          = 2025-12-11T20:00:01.999872
MEAN_MOTION    = 15.53790387
ECCENTRICITY   = .00009615
INCLINATION    = 53.1590
RA_OF_ASC_NODE = 191.5016
ARG_OF_PERICENTER = 91.2414
MEAN_ANOMALY   = 9.2607

EPHEMERIS_TYPE = 0
CLASSIFICATION_TYPE = U
NORAD_CAT_ID   = 66637
ELEMENT_SET_NO = 999
REV_AT_EPOCH   = 409
BSTAR          = -.35282717E-1
MEAN_MOTION_DOT = -.2054219E-1
MEAN_MOTION_DDOT = 0

