STARLINK-35902          
1 66626U 25271K   25345.83335648 -.02055147  00000+0 -35300-1 0  9999
2 66626  53.1596 191.5459 0000879  96.9522 342.4633 15.53791851  4091
STARLINK-35904          
1 66627U 25271L   25345.83335648 -.02054287  00000+0 -35285-1 0  9996
2 66627  53.1599 191.5420 0000856  90.1499 351.1836 15.53790746  3933
STARLINK-35862          
1 66628U 25271M   25345.83335648 -.02051844  00000+0 -35239-1 0  9992
2 66628  53.1599 191.5381 0001023  75.6395   7.6120 15.53788384  4092
STARLINK-35956          
1 66629U 25271N   25345.83335648 -.02054465  00000+0 -35287-1 0  9998
2 66629  53.1596 191.5347 0000942  87.7423 357.4252 15.53790933  4092
STARLINK-35949          
1 66630U 25271P   25345.83335648 -.02054038  00000+0 -35279-1 0  9997
2 66630  53.1598 191.5293 0000826  96.0831 350.9991 15.53791730  4097
STARLINK-35965          
1 66631U 25271Q   25345.83335648 -.02052897  00000+0 -35258-1 0  9996
2 66631  53.1598 191.5262 0000894  94.9371 354.0633 15.53790430  4099
STARLINK-35973          
1 66632U 25271R   25345.83335648 -.02057471  00000+0 -35343-1 0  9995
2 66632  53.1596 191.5225 0001068  75.2230  15.6953 15.53791045  4039
STARLINK-35948          
1 66633U 25271S   25345.83335648 -.02048030  00000+0 -35170-1 0  9995
2 66633  53.1598 191.5172 0000823  88.1098   4.7265 15.53786780  4097
STARLINK-35967          
1 66634U 25271T   25345.83335648 -.02059178  00000+0 -35374-1 0  9997
2 66634  53.1595 191.5130 0000947  93.8304   0.9198 15.53793491  4022
STARLINK-35955          
1 66635U 25271U   25345.83335648 -.02053723  00000+0 -35273-1 0  9996
2 66635  53.1592 191.5092 0000950  89.8337   6.8348 15.53790536  4098
STARLINK-35968          
1 66636U 25271V   25345.83335648 -.02054889  00000+0 -35295-1 0  9995
2 66636  53.1590 191.5055 0001079  75.3001  23.2853 15.53790126  4096
STARLINK-35953          
1 66637U 25271W   25345.83335648 -.02054219  00000+0 -35283-1 0  9990
2 66637  53.1590 191.5016 0000961  91.2414   9.2607 15.53790387  4098
